IONOSFERA-M 2           
1 61736U 24199B   26204.58642522  .00000026  00000+0  31379-4 0  9990
2 61736  98.7123  77.2764 0000846 131.3164 228.8087 14.22763596136005
PRSC-EO1                
1 62725U 25012A   26204.65246419  .00007165  00000+0  35837-3 0  9990
2 62725  97.4211 276.3957 0007304 122.8411 237.3527 15.17702852 83727
BIOMASS                 
1 63772U 25090A   26204.37736323  .00000617  00000+0  11721-3 0  9997
2 63772  98.0751  31.1662 0001467  87.7384 272.3989 14.67538192 65996
GOSAT-GW (IBUKI GW)     
1 64694U 25141A   26204.59904730  .00000036  00000+0  14771-4 0  9995
2 64694  98.0564 141.3244 0001451  83.1036 277.0334 14.67553695 57182
IONOSFERA-M 3           
1 64876U 25155A   26204.56633779  .00000036  00000+0  35992-4 0  9999
2 64876  98.6047 165.5600 0002465  99.6391 260.5066 14.21491900 51578
IONOSFERA-M 4           
1 64877U 25155B   26204.60111641  .00000038  00000+0  37110-4 0  9990
2 64877  98.6045 165.5109 0001913  91.0620 269.0777 14.21494363 51578
MICROCARB               
1 64899U 25156A   26204.15918014  .00000475  00000+0  81854-4 0  9993
2 64899  98.0068 280.7492 0018205 146.1783 214.0590 14.72891772 53262
CO3D 3                  
1 64900U 25156B   26204.52180366  .00003856  00000+0  18108-3 0  9995
2 64900  97.4335 282.6926 0001709  89.0549 271.0882 15.20215830 55059
CO3D 4                  
1 64901U 25156C   26204.52195968  .00003996  00000+0  18755-3 0  9993
2 64901  97.4334 282.6927 0002164 137.7056 222.4347 15.20216232 55053
CO3D 2                  
1 64902U 25156D   26204.48861257  .00004266  00000+0  20000-3 0  9997
2 64902  97.4335 282.5585 0001162  93.6361 266.5008 15.20214875 55043
CO3D 1                  
1 64903U 25156E   26204.55459419  .00004472  00000+0  20956-3 0  9998
2 64903  97.4334 282.6236 0001324  99.3731 260.7654 15.20202989 55058
PRSC-S1                 
1 65055U 25164A   26204.65809179  .00005261  00000+0  35945-3 0  9990
2 65055  41.1305  82.3669 0007773 248.1966 111.8021 15.06692699 53938
SENTINEL-6B             
1 66514U 25264A   26204.31306307 -.00000058  00000+0  13065-4 0  9990
2 66514  66.0410  60.1450 0007820 268.3435  91.6684 12.80930299 31792
CAS500-3                
1 66655U 25274F   26204.31739676  .00001056  00000+0  11976-3 0  9992
2 66655  97.7433 131.5466 0005615  14.9664 345.1718 14.88398081 35520
CSG-3                   
1 67304U 26001A   26204.45217690  .00000314  00000+0  46039-4 0  9990
2 67304  97.8898  27.5310 0001473  92.3348 267.8034 14.82167871 29830
PRSC-E03                
1 68835U 26092A   26204.43867868  .00001831  00000+0  12770-3 0  9995
2 68835  37.9999 235.8850 0004863 302.2243  57.8047 15.06834048 13426
CAS500-2                
1 69013U 26100AK  26204.21381132  .00005697  00000+0  26601-3 0  9997
2 69013  97.3843 101.3699 0007716 230.3220 129.7336 15.20183366 12286
